{
  "type": "FeatureCollection",
  "features": [
    {
      "type": "Feature",
      "properties": {
        "norad_id": 36047,
        "name": "COSMOS 2251 DEB",
        "group": "cosmos-2251-debris",
        "lat": 19.253140246373917,
        "lon": -26.420930957265693,
        "alt_km": 573.600992525714,
        "timestamp": "2025-12-15T20:48:54.281400+00:00",
        "meta_object_name": "COSMOS 2251 DEB",
        "meta_object_id": "1993-036AXJ",
        "meta_epoch": "2025-12-14T22:15:27.613152",
        "meta_mean_motion": 14.96069121,
        "meta_eccentricity": 0.00083362,
        "meta_inclination": 74.0356,
        "meta_ra_of_asc_node": 329.7384,
        "meta_arg_of_pericenter": 357.0105,
        "meta_mean_anomaly": 3.1028,
        "meta_ephemeris_type": 0,
        "meta_classification_type": "U",
        "meta_norad_cat_id": 36047,
        "meta_element_set_no": 999,
        "meta_rev_at_epoch": 65972,
        "meta_bstar": 0.0012898092,
        "meta_mean_motion_dot": 0.00014498,
        "meta_mean_motion_ddot": 0,
        "tle_line1": "1 36047U 93036AXJ 25348.92740293  .00014498  00000+0  12898-2 0  9994",
        "tle_line2": "2 36047  74.0356 329.7384 0008336 357.0105   3.1028 14.96069121659726"
      },
      "geometry": {
        "type": "Point",
        "coordinates": [
          -26.420930957265693,
          19.253140246373917
        ]
      }
    },
    {
      "type": "Feature",
      "properties": {
        "norad_id": 36048,
        "name": "COSMOS 2251 DEB",
        "group": "cosmos-2251-debris",
        "lat": 14.409775142385085,
        "lon": -62.25428137899219,
        "alt_km": 749.9831287951602,
        "timestamp": "2025-12-15T20:48:54.281411+00:00",
        "meta_object_name": "COSMOS 2251 DEB",
        "meta_object_id": "1993-036AXK",
        "meta_epoch": "2025-12-14T19:49:30.529920",
        "meta_mean_motion": 14.37856281,
        "meta_eccentricity": 0.00267154,
        "meta_inclination": 74.057,
        "meta_ra_of_asc_node": 295.4478,
        "meta_arg_of_pericenter": 345.0601,
        "meta_mean_anomaly": 42.267,
        "meta_ephemeris_type": 0,
        "meta_classification_type": "U",
        "meta_norad_cat_id": 36048,
        "meta_element_set_no": 999,
        "meta_rev_at_epoch": 85532,
        "meta_bstar": 0.000348713,
        "meta_mean_motion_dot": 1.03e-05,
        "meta_mean_motion_ddot": 0,
        "tle_line1": "1 36048U 93036AXK 25348.82604780  .00001030  00000+0  34871-3 0  9998",
        "tle_line2": "2 36048  74.0570 295.4478 0026715 345.0601  42.2670 14.37856281855324"
      },
      "geometry": {
        "type": "Point",
        "coordinates": [
          -62.25428137899219,
          14.409775142385085
        ]
      }
    },
    {
      "type": "Feature",
      "properties": {
        "norad_id": 36049,
        "name": "COSMOS 2251 DEB",
        "group": "cosmos-2251-debris",
        "lat": 32.86739726939433,
        "lon": 123.85441202316326,
        "alt_km": 691.040441115103,
        "timestamp": "2025-12-15T20:48:54.281421+00:00",
        "meta_object_name": "COSMOS 2251 DEB",
        "meta_object_id": "1993-036AXL",
        "meta_epoch": "2025-12-14T15:06:03.977280",
        "meta_mean_motion": 14.62178283,
        "meta_eccentricity": 0.00106433,
        "meta_inclination": 74.0297,
        "meta_ra_of_asc_node": 115.562,
        "meta_arg_of_pericenter": 202.4764,
        "meta_mean_anomaly": 157.5938,
        "meta_ephemeris_type": 0,
        "meta_classification_type": "U",
        "meta_norad_cat_id": 36049,
        "meta_element_set_no": 999,
        "meta_rev_at_epoch": 85392,
        "meta_bstar": 0.0012373854,
        "meta_mean_motion_dot": 6.209e-05,
        "meta_mean_motion_ddot": 0,
        "tle_line1": "1 36049U 93036AXL 25348.62921270  .00006209  00000+0  12374-2 0  9999",
        "tle_line2": "2 36049  74.0297 115.5620 0010643 202.4764 157.5938 14.62178283853929"
      },
      "geometry": {
        "type": "Point",
        "coordinates": [
          123.85441202316326,
          32.86739726939433
        ]
      }
    },
    {
      "type": "Feature",
      "properties": {
        "norad_id": 36050,
        "name": "COSMOS 2251 DEB",
        "group": "cosmos-2251-debris",
        "lat": -2.190930585486483,
        "lon": 8.283028251973723,
        "alt_km": 559.9289679613175,
        "timestamp": "2025-12-15T20:48:54.281431+00:00",
        "meta_object_name": "COSMOS 2251 DEB",
        "meta_object_id": "1993-036AXM",
        "meta_epoch": "2025-12-14T20:00:15.103296",
        "meta_mean_motion": 15.01068773,
        "meta_eccentricity": 0.00887055,
        "meta_inclination": 74.0305,
        "meta_ra_of_asc_node": 189.7599,
        "meta_arg_of_pericenter": 268.8941,
        "meta_mean_anomaly": 90.2083,
        "meta_ephemeris_type": 0,
        "meta_classification_type": "U",
        "meta_norad_cat_id": 36050,
        "meta_element_set_no": 999,
        "meta_rev_at_epoch": 67066,
        "meta_bstar": 0.00046388278,
        "meta_mean_motion_dot": 6.413e-05,
        "meta_mean_motion_ddot": 0,
        "tle_line1": "1 36050U 93036AXM 25348.83350814  .00006413  00000+0  46388-3 0  9994",
        "tle_line2": "2 36050  74.0305 189.7599 0088705 268.8941  90.2083 15.01068773670664"
      },
      "geometry": {
        "type": "Point",
        "coordinates": [
          8.283028251973723,
          -2.190930585486483
        ]
      }
    },
    {
      "type": "Feature",
      "properties": {
        "norad_id": 36053,
        "name": "COSMOS 2251 DEB",
        "group": "cosmos-2251-debris",
        "lat": -41.41206720909919,
        "lon": 131.89618160436558,
        "alt_km": 725.5498936262375,
        "timestamp": "2025-12-15T20:48:54.281442+00:00",
        "meta_object_name": "COSMOS 2251 DEB",
        "meta_object_id": "1993-036AXQ",
        "meta_epoch": "2025-12-14T10:24:52.276896",
        "meta_mean_motion": 14.57209114,
        "meta_eccentricity": 0.00325891,
        "meta_inclination": 73.8698,
        "meta_ra_of_asc_node": 149.4338,
        "meta_arg_of_pericenter": 97.9449,
        "meta_mean_anomaly": 262.5415,
        "meta_ephemeris_type": 0,
        "meta_classification_type": "U",
        "meta_norad_cat_id": 36053,
        "meta_element_set_no": 999,
        "meta_rev_at_epoch": 87469,
        "meta_bstar": 0.0016910413,
        "meta_mean_motion_dot": 7.671e-05,
        "meta_mean_motion_ddot": 0,
        "tle_line1": "1 36053U 93036AXQ 25348.43393839  .00007671  00000+0  16910-2 0  9991",
        "tle_line2": "2 36053  73.8698 149.4338 0032589  97.9449 262.5415 14.57209114874694"
      },
      "geometry": {
        "type": "Point",
        "coordinates": [
          131.89618160436558,
          -41.41206720909919
        ]
      }
    },
    {
      "type": "Feature",
      "properties": {
        "norad_id": 36058,
        "name": "COSMOS 2251 DEB",
        "group": "cosmos-2251-debris",
        "lat": 71.39544115915719,
        "lon": 149.17466539676488,
        "alt_km": 674.9335254144144,
        "timestamp": "2025-12-15T20:48:54.281568+00:00",
        "meta_object_name": "COSMOS 2251 DEB",
        "meta_object_id": "1993-036AXV",
        "meta_epoch": "2025-12-13T20:37:32.134944",
        "meta_mean_motion": 14.58701231,
        "meta_eccentricity": 0.00444905,
        "meta_inclination": 74.0239,
        "meta_ra_of_asc_node": 31.3248,
        "meta_arg_of_pericenter": 165.3965,
        "meta_mean_anomaly": 194.8498,
        "meta_ephemeris_type": 0,
        "meta_classification_type": "U",
        "meta_norad_cat_id": 36058,
        "meta_element_set_no": 999,
        "meta_rev_at_epoch": 66127,
        "meta_bstar": 0.00064390107,
        "meta_mean_motion_dot": 3.016e-05,
        "meta_mean_motion_ddot": 0,
        "tle_line1": "1 36058U 93036AXV 25347.85939971  .00003016  00000+0  64390-3 0  9999",
        "tle_line2": "2 36058  74.0239  31.3248 0044490 165.3965 194.8498 14.58701231661273"
      },
      "geometry": {
        "type": "Point",
        "coordinates": [
          149.17466539676488,
          71.39544115915719
        ]
      }
    },
    {
      "type": "Feature",
      "properties": {
        "norad_id": 36060,
        "name": "COSMOS 2251 DEB",
        "group": "cosmos-2251-debris",
        "lat": 4.86065833593762,
        "lon": 47.37174704659917,
        "alt_km": 763.3378652685897,
        "timestamp": "2025-12-15T20:48:54.281580+00:00",
        "meta_object_name": "COSMOS 2251 DEB",
        "meta_object_id": "1993-036AXX",
        "meta_epoch": "2025-12-14T09:02:26.682144",
        "meta_mean_motion": 14.42004042,
        "meta_eccentricity": 0.00153412,
        "meta_inclination": 74.0286,
        "meta_ra_of_asc_node": 231.5306,
        "meta_arg_of_pericenter": 328.3192,
        "meta_mean_anomaly": 31.7039,
        "meta_ephemeris_type": 0,
        "meta_classification_type": "U",
        "meta_norad_cat_id": 36060,
        "meta_element_set_no": 999,
        "meta_rev_at_epoch": 85033,
        "meta_bstar": 0.00041372268,
        "meta_mean_motion_dot": 1.333e-05,
        "meta_mean_motion_ddot": 0,
        "tle_line1": "1 36060U 93036AXX 25348.37669771  .00001333  00000+0  41372-3 0  9993",
        "tle_line2": "2 36060  74.0286 231.5306 0015341 328.3192  31.7039 14.42004042850339"
      },
      "geometry": {
        "type": "Point",
        "coordinates": [
          47.37174704659917,
          4.86065833593762
        ]
      }
    }
  ]
}